IRIDIUM 36 [-]          
1 24967U 97056C   23352.20113764  .00000486  00000+0  15880-3 0  9996
2 24967  86.3973  42.6579 0002113  89.1483 270.9956 14.36549315373663
IRIDIUM 39 [-]          
1 25042U 97069D   23351.81971019  .00000857  00000+0  22715-3 0  9993
2 25042  86.3918  85.5926 0017354 338.8738  21.1746 14.47567231369734
IRIDIUM 38 [-]          
1 25043U 97069E   23352.40551176  .00000670  00000+0  21941-3 0  9991
2 25043  86.3960 103.0518 0004018 102.2985 257.8662 14.37012928367667
IRIDIUM 42 [-]          
1 25077U 97077A   23351.89485215  .00000600  00000+0  20267-3 0  9992
2 25077  86.3964 108.7701 0002711  96.1327 264.0179 14.35311142362669
IRIDIUM 44 [-]          
1 25078U 97077B   23351.78302438  .00000636  00000+0  19944-3 0  9995
2 25078  86.3957  92.2065 0003317  62.9791 297.1746 14.39120475364942
IRIDIUM 45 [-]          
1 25104U 97082A   23351.93002895  .00009594  00000+0  59838-3 0  9990
2 25104  86.3752 307.4341 0174488 178.7771 181.3926 14.97499648369781
IRIDIUM 24 [-]          
1 25105U 97082B   23351.95668038  .00000828  00000+0  25194-3 0  9999
2 25105  86.3901 312.0369 0013830  85.2531 275.0248 14.40882155364633
IRIDIUM 51 [-]          
1 25262U 98018A   23351.93963106  .00012773  00000+0  67739-3 0  9998
2 25262  86.3938 317.7847 0162537 131.1427 230.3967 15.04439859364175
